NORAD_CAT_ID,OBJECT_NAME,OBJECT_TYPE,EPOCH,MEAN_MOTION,ECCENTRICITY,INCLINATION,RA_OF_ASC_NODE,ARG_OF_PERICENTER,MEAN_ANOMALY,BSTAR,MEAN_MOTION_DOT,MEAN_MOTION_DDOT,TLE_LINE0,TLE_LINE1,TLE_LINE2,SEMIMAJOR_AXIS,PERIOD,APOGEE,PERIGEE,DECAYED
52834.0,STARLINK-4108,PAYLOAD,2023-11-12 11:46:43,15.08847849,0.0001249,53.2172,241.8331,85.3145,274.799,6.4775e-05,7.43e-06,0.0,0 STARLINK-4108,1 52834U 22062E   23316.49078688  .00000743  00000-0  64775-4 0  9996,2 52834  53.2172 241.8331 0001249  85.3145 274.7990 15.08847849 77734,6917.856,95.437,540.585,538.857,0.0
52834.0,STARLINK-4108,PAYLOAD,2023-11-12 19:43:40,15.08835237,0.0001471,53.2182,240.3479,98.6326,261.4832,3.3174e-05,2.4e-06,0.0,0 STARLINK-4108,1 52834U 22062E   23316.82199553  .00000240  00000-0  33174-4 0  9999,2 52834  53.2182 240.3479 0001471  98.6326 261.4832 15.08835237 77788,6917.895,95.438,540.778,538.742,0.0
52834.0,STARLINK-4108,PAYLOAD,2023-11-13 00:29:49,15.08842631,0.0001579,53.2177,239.4562,93.2991,266.8182,7.2804e-05,8.71e-06,0.0,0 STARLINK-4108,1 52834U 22062E   23317.02071145  .00000871  00000-0  72804-4 0  9991,2 52834  53.2177 239.4562 0001579  93.2991 266.8182 15.08842631 77819,6917.872,95.437,540.83,538.645,0.0
52834.0,STARLINK-4108,PAYLOAD,2023-11-13 11:37:31,15.08843825,0.0001447,53.2167,237.3693,87.8747,272.2411,0.00015393,2.163e-05,0.0,0 STARLINK-4108,1 52834U 22062E   23317.48439085  .00002163  00000-0  15393-3 0  9997,2 52834  53.2167 237.3693 0001447  87.8747 272.2411 15.08843825 77881,6917.869,95.437,540.735,538.733,0.0
52834.0,STARLINK-4108,PAYLOAD,2023-11-13 14:48:18,15.08834822,0.0001477,53.2165,236.7795,98.0549,262.0611,5.1167e-05,5.26e-06,0.0,0 STARLINK-4108,1 52834U 22062E   23317.61687543  .00000526  00000-0  51167-4 0  9997,2 52834  53.2165 236.7795 0001477  98.0549 262.0611 15.08834822 77901,6917.896,95.438,540.783,538.739,0.0
52834.0,STARLINK-4108,PAYLOAD,2023-11-14 01:55:59,15.08845998,0.0001485,53.2164,234.6984,98.57,261.546,0.00012302,1.671e-05,0.0,0 STARLINK-4108,1 52834U 22062E   23318.08055003  .00001671  00000-0  12302-3 0  9998,2 52834  53.2164 234.6984 0001485  98.5700 261.5460 15.08845998 77979,6917.862,95.437,540.754,538.7,0.0
52834.0,STARLINK-4108,PAYLOAD,2023-11-14 11:28:18,15.08845128,0.0001468,53.2165,232.9152,92.7606,267.3554,7.3137e-05,8.76e-06,0.0,0 STARLINK-4108,1 52834U 22062E   23318.47799056  .00000876  00000-0  73137-4 0  9994,2 52834  53.2165 232.9152 0001468  92.7606 267.3554 15.08845128 78031,6917.865,95.437,540.745,538.714,0.0
52834.0,STARLINK-4108,PAYLOAD,2023-11-14 17:49:51,15.08836968,0.0002062,53.2187,231.7249,89.4324,270.6905,4.2591e-05,3.9e-06,0.0,0 STARLINK-4108,1 52834U 22062E   23318.74295736  .00000390  00000-0  42591-4 0  9991,2 52834  53.2187 231.7249 0002062  89.4324 270.6905 15.08836968 78073,6917.89,95.438,541.181,538.328,0.0
52834.0,STARLINK-4108,PAYLOAD,2023-11-15 03:22:10,15.08837938,0.0001682,53.2165,229.9404,92.4007,267.7177,-1.0332e-06,-3.05e-06,0.0,0 STARLINK-4108,1 52834U 22062E   23319.14039678 -.00000305  00000-0 -10332-5 0  9994,2 52834  53.2165 229.9404 0001682  92.4007 267.7177 15.08837938 78133,6917.887,95.438,540.915,538.588,0.0
52834.0,STARLINK-4108,PAYLOAD,2023-11-16 03:12:57,15.08846381,0.0001491,53.2154,225.479,91.0368,269.0795,0.00018079,2.591e-05,0.0,0 STARLINK-4108,1 52834U 22062E   23320.13399443  .00002591  00000-0  18079-3 0  9995,2 52834  53.2154 225.4790 0001491  91.0368 269.0795 15.08846381 78282,6917.861,95.437,540.757,538.694,0.0
52834.0,STARLINK-4108,PAYLOAD,2023-11-16 17:31:25,15.0883503,0.0001649,53.2143,222.8022,94.0839,266.0342,0.00019198,2.768e-05,0.0,0 STARLINK-4108,1 52834U 22062E   23320.73016121  .00002768  00000-0  19198-3 0  9999,2 52834  53.2143 222.8022 0001649  94.0839 266.0342 15.08835030 78374,6917.896,95.438,540.901,538.62,0.0
52834.0,STARLINK-4108,PAYLOAD,2023-11-17 03:03:44,15.08838765,0.0001808,53.2167,221.0188,104.9821,255.1371,9.085e-05,1.158e-05,0.0,0 STARLINK-4108,1 52834U 22062E   23321.12759984  .00001158  00000-0  90850-4 0  9991,2 52834  53.2167 221.0188 0001808 104.9821 255.1371 15.08838765 78439,6917.884,95.438,541.0,538.498,0.0
52834.0,STARLINK-4108,PAYLOAD,2023-11-18 02:54:31,15.08837518,0.0001673,53.2169,216.5583,94.0119,266.1065,0.0002311,3.392e-05,0.0,0 STARLINK-4108,1 52834U 22062E   23322.12119829  .00003392  00000-0  23110-3 0  9996,2 52834  53.2169 216.5583 0001673  94.0119 266.1065 15.08837518 78581,6917.888,95.438,540.91,538.596,0.0
52834.0,STARLINK-4108,PAYLOAD,2023-11-19 02:45:18,15.08840774,0.0001539,53.2164,212.0978,89.7266,270.3903,7.0401e-05,8.33e-06,0.0,0 STARLINK-4108,1 52834U 22062E   23323.11479821  .00000833  00000-0  70401-4 0  9990,2 52834  53.2164 212.0978 0001539  89.7266 270.3903 15.08840774 78733,6917.878,95.438,540.808,538.678,0.0
52834.0,STARLINK-4108,PAYLOAD,2023-11-19 20:14:32,15.08841929,0.000156,53.2175,208.8264,90.1333,269.9838,7.4018e-05,8.9e-06,0.0,0 STARLINK-4108,1 52834U 22062E   23323.84343723  .00000890  00000-0  74018-4 0  9992,2 52834  53.2175 208.8264 0001560  90.1333 269.9838 15.08841929 78847,6917.874,95.437,540.819,538.66,0.0
52834.0,STARLINK-4108,PAYLOAD,2023-11-19 21:49:56,15.08841538,0.0001573,53.2177,208.5291,90.096,270.0212,6.533e-05,7.52e-06,0.0,0 STARLINK-4108,1 52834U 22062E   23323.90967677  .00000752  00000-0  65330-4 0  9993,2 52834  53.2177 208.5291 0001573  90.0960 270.0212 15.08841538 78851,6917.876,95.437,540.829,538.653,0.0
52834.0,STARLINK-4108,PAYLOAD,2023-11-20 08:57:38,15.08838143,0.0001558,53.2171,206.4483,89.4123,270.7047,0.00010528,1.388e-05,0.0,0 STARLINK-4108,1 52834U 22062E   23324.37335814  .00001388  00000-0  10528-3 0  9991,2 52834  53.2171 206.4483 0001558  89.4123 270.7047 15.08838143 78920,6917.886,95.438,540.829,538.673,0.0
52834.0,STARLINK-4108,PAYLOAD,2023-11-20 20:05:20,15.08840903,0.0001493,53.2167,204.3688,94.9544,265.1619,-7.0263e-05,-1.406e-05,0.0,0 STARLINK-4108,1 52834U 22062E   23324.83704201 -.00001406  00000-0 -70263-4 0  9998,2 52834  53.2167 204.3688 0001493  94.9544 265.1619 15.08840903 78992,6917.878,95.437,540.775,538.71,0.0
52834.0,STARLINK-4108,PAYLOAD,2023-11-20 21:40:44,15.08779803,0.0001827,53.217,204.0712,84.5235,275.5966,0.00074262,0.00011531,0.0,0 STARLINK-4108,1 52834U 22062E   23324.90328932  .00011531  00000-0  74262-3 0  9999,2 52834  53.2170 204.0712 0001827  84.5235 275.5966 15.08779803 79007,6918.064,95.441,541.193,538.665,0.0
52834.0,STARLINK-4108,PAYLOAD,2023-11-21 08:48:25,15.08834562,0.0001676,53.2173,201.99,91.5835,268.535,1.6282e-05,-2.9e-07,0.0,0 STARLINK-4108,1 52834U 22062E   23325.36696407 -.00000029  00000-0  16282-4 0  9995,2 52834  53.2173 201.9900 0001676  91.5835 268.5350 15.08834562 79071,6917.897,95.438,540.921,538.603,0.0
52834.0,STARLINK-4108,PAYLOAD,2023-11-21 21:31:30,15.08843014,0.0001499,53.2169,199.6114,95.367,264.7493,3.7091e-05,3.02e-06,0.0,0 STARLINK-4108,1 52834U 22062E   23325.89687964  .00000302  00000-0  37091-4 0  9995,2 52834  53.2169 199.6114 0001499  95.3670 264.7493 15.08843014 79155,6917.871,95.437,540.773,538.699,0.0
52834.0,STARLINK-4108,PAYLOAD,2023-11-22 00:42:16,15.08846659,0.0001531,53.217,199.017,96.2233,263.8933,6.8931e-05,8.09e-06,0.0,0 STARLINK-4108,1 52834U 22062E   23326.02935651  .00000809  00000-0  68931-4 0  9999,2 52834  53.2170 199.0170 0001531  96.2233 263.8933 15.08846659 79174,6917.86,95.437,540.784,538.666,0.0
52834.0,STARLINK-4108,PAYLOAD,2023-11-22 21:22:18,15.08815419,0.0001749,53.2168,195.1485,91.1869,268.9323,0.0010297,0.00016127,0.0,0 STARLINK-4108,1 52834U 22062E   23326.89049400  .00016127  00000-0  10297-2 0  9992,2 52834  53.2168 195.1485 0001749  91.1869 268.9323 15.08815419 79301,6917.956,95.439,541.03,538.611,0.0
52834.0,STARLINK-4108,PAYLOAD,2023-11-22 22:57:40,15.08847112,0.0001484,53.2162,194.8532,90.8921,269.2241,0.00018844,2.713e-05,0.0,0 STARLINK-4108,1 52834U 22062E   23326.95671534  .00002713  00000-0  18844-3 0  9991,2 52834  53.2162 194.8532 0001484  90.8921 269.2241 15.08847112 79314,6917.859,95.437,540.75,538.697,0.0
52834.0,STARLINK-4108,PAYLOAD,2023-11-23 19:37:41,15.08832024,0.0001443,53.2169,190.9846,86.7967,273.319,-2.4051e-05,-6.71e-06,0.0,0 STARLINK-4108,1 52834U 22062E   23327.81784512 -.00000671  00000-0 -24051-4 0  9999,2 52834  53.2169 190.9846 0001443  86.7967 273.3190 15.08832024 79444,6917.905,95.438,540.768,538.772,0.0
52834.0,STARLINK-4108,PAYLOAD,2023-11-23 21:13:04,15.0883418,0.0001499,53.2164,190.6878,87.9514,272.1649,-4.8667e-05,-1.062e-05,0.0,0 STARLINK-4108,1 52834U 22062E   23327.88408532 -.00001062  00000-0 -48667-4 0  9995,2 52834  53.2164 190.6878 0001499  87.9514 272.1649 15.08834180 79455,6917.898,95.438,540.8,538.726,0.0
52834.0,STARLINK-4108,PAYLOAD,2023-11-24 14:42:19,15.08838458,0.0001405,53.2162,187.4166,96.3495,263.7658,-8.2429e-06,-4.19e-06,0.0,0 STARLINK-4108,1 52834U 22062E   23328.61272655 -.00000419  00000-0 -82429-5 0  9992,2 52834  53.2162 187.4166 0001405  96.3495 263.7658 15.08838458 79566,6917.885,95.438,540.722,538.778,0.0
52834.0,STARLINK-4108,PAYLOAD,2023-11-24 19:28:28,15.08843376,0.0001389,53.2155,186.5268,92.417,267.6981,8.9078e-05,1.13e-05,0.0,0 STARLINK-4108,1 52834U 22062E   23328.81144464  .00001130  00000-0  89078-4 0  9995,2 52834  53.2155 186.5268 0001389  92.4170 267.6981 15.08843376 79599,6917.87,95.437,540.696,538.774,0.0
52834.0,STARLINK-4108,PAYLOAD,2023-11-24 21:03:51,15.08844341,0.0001401,53.2155,186.2297,89.8567,270.2586,0.00011116,1.482e-05,0.0,0 STARLINK-4108,1 52834U 22062E   23328.87768445  .00001482  00000-0  11116-3 0  9999,2 52834  53.2155 186.2297 0001401  89.8567 270.2586 15.08844341 79609,6917.867,95.437,540.701,538.763,0.0
52834.0,STARLINK-4108,PAYLOAD,2023-11-25 00:14:37,15.08848716,0.0001374,53.2156,185.6336,103.3149,256.7997,0.00019136,2.76e-05,0.0,0 STARLINK-4108,1 52834U 22062E   23329.01016158  .00002760  00000-0  19136-3 0  9993,2 52834  53.2156 185.6336 0001374 103.3149 256.7997 15.08848716 79621,6917.854,95.437,540.669,538.768,0.0
